OBJECT_NAME,OBJECT_ID,EPOCH,MEAN_MOTION,ECCENTRICITY,INCLINATION,RA_OF_ASC_NODE,ARG_OF_PERICENTER,MEAN_ANOMALY,EPHEMERIS_TYPE,CLASSIFICATION_TYPE,NORAD_CAT_ID,ELEMENT_SET_NO,REV_AT_EPOCH,BSTAR,MEAN_MOTION_DOT,MEAN_MOTION_DDOT
INTELSAT 23 (IS-23),2012-057A,2026-07-08T11:44:13.921728,1.00270462,.00003683,0.0151,22.2294,189.3104,197.9650,0,U,38867,999,5016,0,-.27E-5,0
FM-6,2013-058A,2026-07-08T13:08:45.961152,1.00270988,.00028935,0.0458,68.7412,115.7141,182.9035,0,U,39360,999,4628,0,0,0
INTELSAT 30 (IS-30),2014-062A,2026-07-08T00:48:11.791584,1.00270031,.000131,0.0173,47.8504,342.3909,172.7537,0,U,40271,999,700,0,-.136E-5,0
DIRECTV 14,2014-078B,2026-07-08T13:13:37.994016,1.00271776,.00003416,0.0093,27.2304,319.5725,38.8705,0,U,40333,999,4225,0,-.111E-5,0
DIRECTV 15,2015-026A,2026-07-07T21:48:46.493280,1.00272144,.00003978,0.0158,68.2504,269.1364,172.8114,0,U,40663,999,4067,0,-.87E-6,0
SKY MEXICO-1,2015-026B,2026-07-08T13:19:29.932320,1.00270226,.00024552,0.0106,322.8639,166.9955,277.7244,0,U,40664,999,4066,0,-.219E-5,0
INTELSAT 34 (IS-34),2015-039A,2026-07-08T11:43:28.993728,1.00270178,.00002732,0.0091,344.6444,17.4358,44.7415,0,U,40874,999,3984,0,-.271E-5,0
INTELSAT 31 (IS-31),2016-035A,2026-07-08T13:14:52.875168,1.00270097,.00010154,0.0320,244.6568,40.0793,105.4395,0,U,41581,999,3689,0,-.136E-5,0
INTELSAT 36 (IS-36),2016-053A,2026-07-07T19:12:15.204672,1.00285795,.00009753,0.0091,10.2892,27.8198,244.1989,0,U,41747,999,3616,0,-.12E-6,0
INTELSAT 32E (IS-32E),2017-007B,2026-07-08T11:46:58.658880,1.00268762,.00006931,0.0155,11.0570,308.9996,99.9531,0,U,41945,999,3443,0,-.254E-5,0
INTELSAT 35E (IS-35E),2017-041A,2026-07-08T11:49:28.418592,1.00269631,.0001596,0.0227,28.7507,80.1275,320.4489,0,U,42818,999,3302,0,0,0
INTELSAT 37E (IS-37E),2017-059A,2026-07-08T10:11:34.075680,1.00269878,.00024855,0.0254,41.0662,74.7591,305.4497,0,U,42950,999,3227,0,0,0
AZERSPACE 2 (IS-38),2018-074A,2026-07-08T13:54:49.046112,1.00271404,.00012243,0.0252,32.3037,88.8855,59.1554,0,U,43632,999,2866,0,0,0
HORIZONS-3E,2018-074B,2026-07-07T21:23:33.910080,1.00267153,.00008947,0.0461,215.8693,83.2563,116.6260,0,U,43633,999,2854,0,-.16E-6,0
AT&T T-16,2019-034A,2026-07-07T21:49:16.444704,1.00268746,.000049,0.0156,67.5942,240.6770,204.0501,0,U,44333,999,2584,0,-.1E-5,0
INTELSAT 39 (IS-39),2019-049B,2026-07-08T12:16:55.786656,1.00269795,.00008428,0.0241,27.9038,293.9164,210.8217,0,U,44476,999,2534,0,0,0
GALAXY 30 (G-30),2020-056C,2026-07-08T13:06:16.199712,1.00270721,.00020764,0.0161,50.2715,58.5145,249.2822,0,U,46114,999,2150,0,.52E-6,0
GALAXY 33 (G-33),2022-128A,2026-07-08T09:45:43.315776,1.00273303,.00017295,0.0108,327.3717,140.6892,191.7431,0,U,54026,999,1395,0,.94E-6,0
GALAXY 34 (G-34),2022-128B,2026-07-08T10:29:38.882976,1.00268417,.00015485,0.0197,24.2371,108.6302,181.9406,0,U,54027,999,1412,0,0,0
GALAXY 31 (G-31),2022-153A,2026-07-08T13:07:31.080000,1.00271863,.00011049,0.0142,22.5417,92.2682,247.5716,0,U,54243,999,734,0,0,0
GALAXY 32 (G-32),2022-153B,2026-07-08T09:50:44.424096,1.00270410,.00015076,0.0091,36.4363,12.4066,294.2059,0,U,54244,999,1335,0,-.159E-5,0
GALAXY 35 (G-35),2022-170A,2026-07-08T13:15:22.826592,1.00270977,.00020079,0.0184,278.4629,192.9116,280.8736,0,U,54741,999,1310,0,-.147E-5,0
GALAXY 36 (G-36),2022-170B,2026-07-08T09:51:14.376384,1.00270620,.00025894,0.0243,126.3549,332.7156,246.1008,0,U,54742,999,1298,0,-.17E-5,0
GALAXY 37 (G-37),2023-112A,2026-07-08T13:05:46.248288,1.00272529,.00018217,0.0185,40.2842,75.3692,240.2929,0,U,57493,999,1075,0,.63E-6,0
