INTELSAT 23 (IS-23)     
1 38867U 12057A   26189.48905002 -.00000270  00000+0  00000+0 0  9999
2 38867   0.0151  22.2294 0000368 189.3104 197.9650  1.00270462 50166
FM-6                    
1 39360U 13058A   26189.54775418  .00000000  00000+0  00000+0 0  9993
2 39360   0.0458  68.7412 0002893 115.7141 182.9035  1.00270988 46283
INTELSAT 30 (IS-30)     
1 40271U 14062A   26189.03346981 -.00000136  00000+0  00000+0 0  9996
2 40271   0.0173  47.8504 0001310 342.3909 172.7537  1.00270031  7003
DIRECTV 14              
1 40333U 14078B   26189.55113419 -.00000111  00000+0  00000+0 0  9990
2 40333   0.0093  27.2304 0000341 319.5725  38.8705  1.00271776 42250
DIRECTV 15              
1 40663U 15026A   26188.90887145 -.00000087  00000+0  00000+0 0  9994
2 40663   0.0158  68.2504 0000397 269.1364 172.8114  1.00272144 40672
SKY MEXICO-1            
1 40664U 15026B   26189.55520755 -.00000219  00000+0  00000+0 0  9995
2 40664   0.0106 322.8639 0002455 166.9955 277.7244  1.00270226 40668
INTELSAT 34 (IS-34)     
1 40874U 15039A   26189.48853002 -.00000271  00000+0  00000+0 0  9996
2 40874   0.0091 344.6444 0000273  17.4358  44.7415  1.00270178 39849
INTELSAT 31 (IS-31)     
1 41581U 16035A   26189.55200087 -.00000136  00000+0  00000+0 0  9996
2 41581   0.0320 244.6568 0001015  40.0793 105.4395  1.00270097 36890
INTELSAT 36 (IS-36)     
1 41747U 16053A   26188.80017598 -.00000012  00000+0  00000+0 0  9993
2 41747   0.0091  10.2892 0000975  27.8198 244.1989  1.00285795 36163
INTELSAT 32E (IS-32E)   
1 41945U 17007B   26189.49095670 -.00000254  00000+0  00000+0 0  9994
2 41945   0.0155  11.0570 0000693 308.9996  99.9531  1.00268762 34434
INTELSAT 35E (IS-35E)   
1 42818U 17041A   26189.49269003  .00000000  00000+0  00000+0 0  9993
2 42818   0.0227  28.7507 0001596  80.1275 320.4489  1.00269631 33025
INTELSAT 37E (IS-37E)   
1 42950U 17059A   26189.42469995  .00000000  00000+0  00000+0 0  9994
2 42950   0.0254  41.0662 0002485  74.7591 305.4497  1.00269878 32271
AZERSPACE 2 (IS-38)     
1 43632U 18074A   26189.57973433  .00000000  00000+0  00000+0 0  9993
2 43632   0.0252  32.3037 0001224  88.8855  59.1554  1.00271404 28668
HORIZONS-3E             
1 43633U 18074B   26188.89136470 -.00000016  00000+0  00000+0 0  9998
2 43633   0.0461 215.8693 0000894  83.2563 116.6260  1.00267153 28540
AT&T T-16               
1 44333U 19034A   26188.90921811 -.00000100  00000+0  00000+0 0  9990
2 44333   0.0156  67.5942 0000490 240.6770 204.0501  1.00268746 25848
INTELSAT 39 (IS-39)     
1 44476U 19049B   26189.51175679  .00000000  00000+0  00000+0 0  9993
2 44476   0.0241  27.9038 0000842 293.9164 210.8217  1.00269795 25345
GALAXY 30 (G-30)        
1 46114U 20056C   26189.54602083  .00000052  00000+0  00000+0 0  9998
2 46114   0.0161  50.2715 0002076  58.5145 249.2822  1.00270721 21506
GALAXY 33 (G-33)        
1 54026U 22128A   26189.40675134  .00000094  00000+0  00000+0 0  9999
2 54026   0.0108 327.3717 0001729 140.6892 191.7431  1.00273303 13950
GALAXY 34 (G-34)        
1 54027U 22128B   26189.43725559  .00000000  00000+0  00000+0 0  9997
2 54027   0.0197  24.2371 0001548 108.6302 181.9406  1.00268417 14120
GALAXY 31 (G-31)        
1 54243U 22153A   26189.54688750  .00000000  00000+0  00000+0 0  9998
2 54243   0.0142  22.5417 0001104  92.2682 247.5716  1.00271863  7347
GALAXY 32 (G-32)        
1 54244U 22153B   26189.41023639 -.00000159  00000+0  00000+0 0  9990
2 54244   0.0091  36.4363 0001507  12.4066 294.2059  1.00270410 13356
GALAXY 35 (G-35)        
1 54741U 22170A   26189.55234753 -.00000147  00000+0  00000+0 0  9994
2 54741   0.0184 278.4629 0002007 192.9116 280.8736  1.00270977 13104
GALAXY 36 (G-36)        
1 54742U 22170B   26189.41058306 -.00000170  00000+0  00000+0 0  9994
2 54742   0.0243 126.3549 0002589 332.7156 246.1008  1.00270620 12983
GALAXY 37 (G-37)        
1 57493U 23112A   26189.54567417  .00000063  00000+0  00000+0 0  9999
2 57493   0.0185  40.2842 0001821  75.3692 240.2929  1.00272529 10757
